{"type": "FeatureCollection", "features": [ {"type": "Feature", "properties": {"norad_id": 33799, "name": "COSMOS 2251 DEB", "group": "cosmos-2251-debris", "lat": -54.781134101845026, "lon": 42.361662015056076, "alt_km": 652.5184032645575, "timestamp": "2025-12-20T14:38:02.361670+00:00", "meta": {"OBJECT_NAME": "COSMOS 2251 DEB", "OBJECT_ID": "1993-036AQ", "EPOCH": "2025-12-19T14:52:34.207104", "MEAN_MOTION": 14.79698147, "ECCENTRICITY": 0.0022784, "INCLINATION": 74.0325, "RA_OF_ASC_NODE": 68.2393, "ARG_OF_PERICENTER": 136.5216, "MEAN_ANOMALY": 294.3275, "EPHEMERIS_TYPE": 0, "CLASSIFICATION_TYPE": "U", "NORAD_CAT_ID": 33799, "ELEMENT_SET_NO": 999, "REV_AT_EPOCH": 88913, "BSTAR": 0.00074895, "MEAN_MOTION_DOT": 5.621e-05, "MEAN_MOTION_DDOT": 0}, "tle": {"line1": "1 33799U 93036AQ  25353.61984036  .00005621  00000+0  74895-3 0  9996", "line2": "2 33799  74.0325  68.2393 0022784 136.5216 294.3275 14.79698147889139"}}, "geometry": {"type": "Point", "coordinates": [42.361662015056076, -54.781134101845026]}}, {"type": "Feature", "properties": {"norad_id": 33805, "name": "COSMOS 2251 DEB", "group": "cosmos-2251-debris", "lat": -0.2145508488537724, "lon": 116.42087338655176, "alt_km": 679.4387987602404, "timestamp": "2025-12-20T14:38:02.361681+00:00", "meta": {"OBJECT_NAME": "COSMOS 2251 DEB", "OBJECT_ID": "1993-036AW", "EPOCH": "2025-12-20T05:34:52.586112", "MEAN_MOTION": 14.57871004, "ECCENTRICITY": 0.00599867, "INCLINATION": 74.0312, "RA_OF_ASC_NODE": 297.0767, "ARG_OF_PERICENTER": 123.8759, "MEAN_ANOMALY": 236.8133, "EPHEMERIS_TYPE": 0, "CLASSIFICATION_TYPE": "U", "NORAD_CAT_ID": 33805, "ELEMENT_SET_NO": 999, "REV_AT_EPOCH": 89336, "BSTAR": 0.00016488094, "MEAN_MOTION_DOT": 7.44e-06, "MEAN_MOTION_DDOT": 0}, "tle": {"line1": "1 33805U 93036AW  25354.23255308  .00000744  00000+0  16488-3 0  9991", "line2": "2 33805  74.0312 297.0767 0059986 123.8759 236.8133 14.57871004893360"}}, "geometry": {"type": "Point", "coordinates": [116.42087338655176, -0.2145508488537724]}}, {"type": "Feature", "properties": {"norad_id": 33811, "name": "COSMOS 2251 DEB", "group": "cosmos-2251-debris", "lat": -44.94458846121878, "lon": -90.49315620705103, "alt_km": 543.525722729988, "timestamp": "2025-12-20T14:38:02.361691+00:00", "meta": {"OBJECT_NAME": "COSMOS 2251 DEB", "OBJECT_ID": "1993-036BC", "EPOCH": "2025-12-20T05:59:17.746944", "MEAN_MOTION": 15.05474217, "ECCENTRICITY": 0.00308452, "INCLINATION": 73.8378, "RA_OF_ASC_NODE": 287.0789, "ARG_OF_PERICENTER": 6.6191, "MEAN_ANOMALY": 154.8287, "EPHEMERIS_TYPE": 0, "CLASSIFICATION_TYPE": "U", "NORAD_CAT_ID": 33811, "ELEMENT_SET_NO": 999, "REV_AT_EPOCH": 90131, "BSTAR": 0.0007617611, "MEAN_MOTION_DOT": 0.00011039, "MEAN_MOTION_DDOT": 0}, "tle": {"line1": "1 33811U 93036BC  25354.24951096  .00011039  00000+0  76176-3 0  9995", "line2": "2 33811  73.8378 287.0789 0030845   6.6191 154.8287 15.05474217901313"}}, "geometry": {"type": "Point", "coordinates": [-90.49315620705103, -44.94458846121878]}}, {"type": "Feature", "properties": {"norad_id": 33815, "name": "COSMOS 2251 DEB", "group": "cosmos-2251-debris", "lat": 46.201823668902726, "lon": 177.49664649187827, "alt_km": 501.90764883642623, "timestamp": "2025-12-20T14:38:02.361702+00:00", "meta": {"OBJECT_NAME": "COSMOS 2251 DEB", "OBJECT_ID": "1993-036BG", "EPOCH": "2025-12-19T21:41:49.609824", "MEAN_MOTION": 15.19832147, "ECCENTRICITY": 0.0001675, "INCLINATION": 73.9514, "RA_OF_ASC_NODE": 161.5129, "ARG_OF_PERICENTER": 305.1272, "MEAN_ANOMALY": 203.9305, "EPHEMERIS_TYPE": 0, "CLASSIFICATION_TYPE": "U", "NORAD_CAT_ID": 33815, "ELEMENT_SET_NO": 999, "REV_AT_EPOCH": 88479, "BSTAR": 0.0042809, "MEAN_MOTION_DOT": 0.00092951, "MEAN_MOTION_DDOT": 0}, "tle": {"line1": "1 33815U 93036BG  25353.90404641  .00092951  00000+0  42809-2 0  9997", "line2": "2 33815  73.9514 161.5129 0001675 305.1272 203.9305 15.19832147884794"}}, "geometry": {"type": "Point", "coordinates": [177.49664649187827, 46.201823668902726]}}, {"type": "Feature", "properties": {"norad_id": 33816, "name": "COSMOS 2251 DEB", "group": "cosmos-2251-debris", "lat": -17.894230350132997, "lon": 86.70536662807041, "alt_km": 1061.1019314189334, "timestamp": "2025-12-20T14:38:02.361712+00:00", "meta": {"OBJECT_NAME": "COSMOS 2251 DEB", "OBJECT_ID": "1993-036BH", "EPOCH": "2025-12-19T16:08:15.886176", "MEAN_MOTION": 13.81790801, "ECCENTRICITY": 0.02643508, "INCLINATION": 73.8953, "RA_OF_ASC_NODE": 93.6459, "ARG_OF_PERICENTER": 105.2097, "MEAN_ANOMALY": 257.842, "EPHEMERIS_TYPE": 0, "CLASSIFICATION_TYPE": "U", "NORAD_CAT_ID": 33816, "ELEMENT_SET_NO": 999, "REV_AT_EPOCH": 84769, "BSTAR": 0.00025443517, "MEAN_MOTION_DOT": 3.34e-06, "MEAN_MOTION_DDOT": 0}, "tle": {"line1": "1 33816U 93036BH  25353.67240609  .00000334  00000+0  25444-3 0  9995", "line2": "2 33816  73.8953  93.6459 0264350 105.2097 257.8420 13.81790801847698"}}, "geometry": {"type": "Point", "coordinates": [86.70536662807041, -17.894230350132997]}}, {"type": "Feature", "properties": {"norad_id": 33818, "name": "COSMOS 2251 DEB", "group": "cosmos-2251-debris", "lat": 57.28486632156214, "lon": -56.41967598838594, "alt_km": 504.18670729919813, "timestamp": "2025-12-20T14:38:02.361722+00:00", "meta": {"OBJECT_NAME": "COSMOS 2251 DEB", "OBJECT_ID": "1993-036BK", "EPOCH": "2025-12-20T05:21:47.500416", "MEAN_MOTION": 15.13058669, "ECCENTRICITY": 0.00253416, "INCLINATION": 74.0771, "RA_OF_ASC_NODE": 150.7662, "ARG_OF_PERICENTER": 136.3634, "MEAN_ANOMALY": 39.4286, "EPHEMERIS_TYPE": 0, "CLASSIFICATION_TYPE": "U", "NORAD_CAT_ID": 33818, "ELEMENT_SET_NO": 999, "REV_AT_EPOCH": 89975, "BSTAR": 0.0017238823, "MEAN_MOTION_DOT": 0.00030819, "MEAN_MOTION_DDOT": 0}, "tle": {"line1": "1 33818U 93036BK  25354.22346644  .00030819  00000+0  17239-2 0  9998", "line2": "2 33818  74.0771 150.7662 0025341 136.3634  39.4286 15.13058669899753"}}, "geometry": {"type": "Point", "coordinates": [-56.41967598838594, 57.28486632156214]}}, {"type": "Feature", "properties": {"norad_id": 33819, "name": "COSMOS 2251 DEB", "group": "cosmos-2251-debris", "lat": 53.42971020543451, "lon": -6.862895815051406, "alt_km": 755.1820515336531, "timestamp": "2025-12-20T14:38:02.361733+00:00", "meta": {"OBJECT_NAME": "COSMOS 2251 DEB", "OBJECT_ID": "1993-036BL", "EPOCH": "2025-12-20T01:13:29.138880", "MEAN_MOTION": 14.32246054, "ECCENTRICITY": 0.00893588, "INCLINATION": 74.1776, "RA_OF_ASC_NODE": 196.6206, "ARG_OF_PERICENTER": 55.742, "MEAN_ANOMALY": 67.0213, "EPHEMERIS_TYPE": 0, "CLASSIFICATION_TYPE": "U", "NORAD_CAT_ID": 33819, "ELEMENT_SET_NO": 999, "REV_AT_EPOCH": 87600, "BSTAR": 0.00042117105, "MEAN_MOTION_DOT": 1.163e-05, "MEAN_MOTION_DDOT": 0}, "tle": {"line1": "1 33819U 93036BL  25354.05103170  .00001163  00000+0  42117-3 0  9999", "line2": "2 33819  74.1776 196.6206 0089358  55.7420  67.0213 14.32246054876005"}}, "geometry": {"type": "Point", "coordinates": [-6.862895815051406, 53.42971020543451]}}, {"type": "Feature", "properties": {"norad_id": 33821, "name": "COSMOS 2251 DEB", "group": "cosmos-2251-debris", "lat": -70.13018081684062, "lon": 73.78055078997559, "alt_km": 514.8785780954686, "timestamp": "2025-12-20T14:38:02.361743+00:00", "meta": {"OBJECT_NAME": "COSMOS 2251 DEB", "OBJECT_ID": "1993-036BN", "EPOCH": "2025-12-20T02:23:20.746752", "MEAN_MOTION": 15.25744458, "ECCENTRICITY": 0.00502333, "INCLINATION": 74.0299, "RA_OF_ASC_NODE": 127.272, "ARG_OF_PERICENTER": 158.5982, "MEAN_ANOMALY": 201.7335, "EPHEMERIS_TYPE": 0, "CLASSIFICATION_TYPE": "U", "NORAD_CAT_ID": 33821, "ELEMENT_SET_NO": 999, "REV_AT_EPOCH": 75113, "BSTAR": 0.00085563087, "MEAN_MOTION_DOT": 0.0002267, "MEAN_MOTION_DDOT": 0}, "tle": {"line1": "1 33821U 93036BN  25354.09954568  .00022670  00000+0  85563-3 0  9999", "line2": "2 33821  74.0299 127.2720 0050233 158.5982 201.7335 15.25744458751135"}}, "geometry": {"type": "Point", "coordinates": [73.78055078997559, -70.13018081684062]}}, {"type": "Feature", "properties": {"norad_id": 33822, "name": "COSMOS 2251 DEB", "group": "cosmos-2251-debris", "lat": 51.49277809936382, "lon": -21.251271908990024, "alt_km": 858.744013822813, "timestamp": "2025-12-20T14:38:02.361753+00:00", "meta": {"OBJECT_NAME": "COSMOS 2251 DEB", "OBJECT_ID": "1993-036BP", "EPOCH": "2025-12-19T23:28:11.226144", "MEAN_MOTION": 14.13102659, "ECCENTRICITY": 0.0152923, "INCLINATION": 74.0676, "RA_OF_ASC_NODE": 180.9038, "ARG_OF_PERICENTER": 225.4594, "MEAN_ANOMALY": 288.7225, "EPHEMERIS_TYPE": 0, "CLASSIFICATION_TYPE": "U", "NORAD_CAT_ID": 33822, "ELEMENT_SET_NO": 999, "REV_AT_EPOCH": 86156, "BSTAR": 0.00089599, "MEAN_MOTION_DOT": 1.846e-05, "MEAN_MOTION_DDOT": 0}, "tle": {"line1": "1 33822U 93036BP  25353.97790771  .00001846  00000+0  89599-3 0  9995", "line2": "2 33822  74.0676 180.9038 0152923 225.4594 288.7225 14.13102659861564"}}, "geometry": {"type": "Point", "coordinates": [-21.251271908990024, 51.49277809936382]}}, {"type": "Feature", "properties": {"norad_id": 33823, "name": "COSMOS 2251 DEB", "group": "cosmos-2251-debris", "lat": -73.79967414473737, "lon": 45.857031007484615, "alt_km": 754.483263523839, "timestamp": "2025-12-20T14:38:02.361763+00:00", "meta": {"OBJECT_NAME": "COSMOS 2251 DEB", "OBJECT_ID": "1993-036BQ", "EPOCH": "2025-12-19T18:47:19.256064", "MEAN_MOTION": 13.98966342, "ECCENTRICITY": 0.02093966, "INCLINATION": 73.8095, "RA_OF_ASC_NODE": 136.9865, "ARG_OF_PERICENTER": 261.0165, "MEAN_ANOMALY": 165.7872, "EPHEMERIS_TYPE": 0, "CLASSIFICATION_TYPE": "U", "NORAD_CAT_ID": 33823, "ELEMENT_SET_NO": 999, "REV_AT_EPOCH": 85708, "BSTAR": 0.00054768877, "MEAN_MOTION_DOT": 9.28e-06, "MEAN_MOTION_DDOT": 0}, "tle": {"line1": "1 33823U 93036BQ  25353.78286176  .00000928  00000+0  54769-3 0  9995", "line2": "2 33823  73.8095 136.9865 0209396 261.0165 165.7872 13.98966342857086"}}, "geometry": {"type": "Point", "coordinates": [45.857031007484615, -73.79967414473737]}}]}